ARIANE 5 R/B            
1 28499U 04049H   25299.41693368  .00001400  00000+0  16123-3 0  9996
2 28499  98.2507  98.0149 0085910  66.5718 294.4499 14.84869959125868
CZ-2D R/B               
1 28738U 05024B   25299.51379388  .00029863  00000+0  53172-3 0  9998
2 28738  97.3684 305.8220 0007262 136.3822 223.8004 15.50057960118938
ALOS (DAICHI)           
1 28931U 06002A   25299.43601896  .00002311  00000+0  40036-3 0  9997
2 28931  98.1015 251.2845 0001833  57.1159 303.0223 14.69249629 53765
H-2A R/B                
1 28932U 06002B   25299.32886037  .00008613  00000+0  46972-3 0  9994
2 28932  98.2288  70.2674 0055472 338.5810  21.3098 15.13321465 74094
RESURS-DK 1             
1 29228U 06021A   25299.19661162  .00003815  00000+0  22914-3 0  9998
2 29228  69.9336 224.6644 0006805 300.1598  59.8893 15.11772438 67198
CZ-4B R/B               
1 29507U 06046C   25299.36279859  .00005414  00000+0  28776-3 0  9991
2 29507  97.5799 339.6327 0034896  15.3758 344.8526 15.15184584 39694
CZ-2C R/B               
1 31114U 07010B   25299.30383433  .00000222  00000+0  12129-3 0  9995
2 31114  98.3944  54.3504 0058342 325.8913  33.8521 14.20181900960646
COSMO-SKYMED 1          
1 31598U 07023A   25299.48408860  .00003835  00000+0  35364-3 0  9995
2 31598  97.8875 124.5868 0001421  82.3231 277.8150 14.95271009994834
COSMOS 2428             
1 31792U 07029A   25299.51617282 -.00000241  00000+0 -10363-3 0  9993
2 31792  70.9366 125.0218 0001752 128.9759 231.1518 14.12894627945148
SL-16 R/B               
1 31793U 07029B   25299.51331689 -.00000124  00000+0 -39633-4 0  9990
2 31793  70.9733  94.4264 0002583 263.4499 154.4915 14.14804293946394
KORONAS-FOTON           
1 33504U 09003A   25299.39914024  .00015911  00000+0  40176-3 0  9993
2 33504  82.4330  55.0901 0010668 280.1791  79.8251 15.39634955925059
CZ-2C R/B               
1 37731U 11030B   25299.50623051  .00002268  00000+0  29465-3 0  9991
2 37731  97.8336 254.6880 0054701  67.6335  53.0865 14.80648767770236
