CCSDS_OMM_VERS = 2.0
CREATION_DATE  = 
ORIGINATOR     = 

OBJECT_NAME    = ARIANE 5 R/B
OBJECT_ID      = 2004-049H
CENTER_NAME    = EARTH
REF_FRAME      = TEME
TIME_SYSTEM    = UTC
MEAN_ELEMENT_THEORY = SGP/SGP4

EPOCH          = 2025-10-26T10:00:23.069952
MEAN_MOTION    = 14.84869959
ECCENTRICITY   = .008591
INCLINATION    = 98.2507
RA_OF_ASC_NODE = 98.0149
ARG_OF_PERICENTER = 66.5718
MEAN_ANOMALY   = 294.4499

EPHEMERIS_TYPE = 0
CLASSIFICATION_TYPE = U
NORAD_CAT_ID   = 28499
ELEMENT_SET_NO = 999
REV_AT_EPOCH   = 12586
BSTAR          = .16123E-3
MEAN_MOTION_DOT = .14E-4
MEAN_MOTION_DDOT = 0

CCSDS_OMM_VERS = 2.0
CREATION_DATE  = 
ORIGINATOR     = 

OBJECT_NAME    = CZ-2D R/B
OBJECT_ID      = 2005-024B
CENTER_NAME    = EARTH
REF_FRAME      = TEME
TIME_SYSTEM    = UTC
MEAN_ELEMENT_THEORY = SGP/SGP4

EPOCH          = 2025-10-26T12:19:51.791232
MEAN_MOTION    = 15.50057960
ECCENTRICITY   = .0007262
INCLINATION    = 97.3684
RA_OF_ASC_NODE = 305.8220
ARG_OF_PERICENTER = 136.3822
MEAN_ANOMALY   = 223.8004

EPHEMERIS_TYPE = 0
CLASSIFICATION_TYPE = U
NORAD_CAT_ID   = 28738
ELEMENT_SET_NO = 999
REV_AT_EPOCH   = 11893
BSTAR          = .53172E-3
MEAN_MOTION_DOT = .29863E-3
MEAN_MOTION_DDOT = 0

CCSDS_OMM_VERS = 2.0
CREATION_DATE  = 
ORIGINATOR     = 

OBJECT_NAME    = ALOS (DAICHI)
OBJECT_ID      = 2006-002A
CENTER_NAME    = EARTH
REF_FRAME      = TEME
TIME_SYSTEM    = UTC
MEAN_ELEMENT_THEORY = SGP/SGP4

EPOCH          = 2025-10-26T10:27:52.038144
MEAN_MOTION    = 14.69249629
ECCENTRICITY   = .0001833
INCLINATION    = 98.1015
RA_OF_ASC_NODE = 251.2845
ARG_OF_PERICENTER = 57.1159
MEAN_ANOMALY   = 303.0223

EPHEMERIS_TYPE = 0
CLASSIFICATION_TYPE = U
NORAD_CAT_ID   = 28931
ELEMENT_SET_NO = 999
REV_AT_EPOCH   = 5376
BSTAR          = .40036E-3
MEAN_MOTION_DOT = .2311E-4
MEAN_MOTION_DDOT = 0

CCSDS_OMM_VERS = 2.0
CREATION_DATE  = 
ORIGINATOR     = 

OBJECT_NAME    = H-2A R/B
OBJECT_ID      = 2006-002B
CENTER_NAME    = EARTH
REF_FRAME      = TEME
TIME_SYSTEM    = UTC
MEAN_ELEMENT_THEORY = SGP/SGP4

EPOCH          = 2025-10-26T07:53:33.535968
MEAN_MOTION    = 15.13321465
ECCENTRICITY   = .0055472
INCLINATION    = 98.2288
RA_OF_ASC_NODE = 70.2674
ARG_OF_PERICENTER = 338.5810
MEAN_ANOMALY   = 21.3098

EPHEMERIS_TYPE = 0
CLASSIFICATION_TYPE = U
NORAD_CAT_ID   = 28932
ELEMENT_SET_NO = 999
REV_AT_EPOCH   = 7409
BSTAR          = .46972E-3
MEAN_MOTION_DOT = .8613E-4
MEAN_MOTION_DDOT = 0

CCSDS_OMM_VERS = 2.0
CREATION_DATE  = 
ORIGINATOR     = 

OBJECT_NAME    = RESURS-DK 1
OBJECT_ID      = 2006-021A
CENTER_NAME    = EARTH
REF_FRAME      = TEME
TIME_SYSTEM    = UTC
MEAN_ELEMENT_THEORY = SGP/SGP4

EPOCH          = 2025-10-26T04:43:07.243968
MEAN_MOTION    = 15.11772438
ECCENTRICITY   = .0006805
INCLINATION    = 69.9336
RA_OF_ASC_NODE = 224.6644
ARG_OF_PERICENTER = 300.1598
MEAN_ANOMALY   = 59.8893

EPHEMERIS_TYPE = 0
CLASSIFICATION_TYPE = U
NORAD_CAT_ID   = 29228
ELEMENT_SET_NO = 999
REV_AT_EPOCH   = 6719
BSTAR          = .22914E-3
MEAN_MOTION_DOT = .3815E-4
MEAN_MOTION_DDOT = 0

CCSDS_OMM_VERS = 2.0
CREATION_DATE  = 
ORIGINATOR     = 

OBJECT_NAME    = CZ-4B R/B
OBJECT_ID      = 2006-046C
CENTER_NAME    = EARTH
REF_FRAME      = TEME
TIME_SYSTEM    = UTC
MEAN_ELEMENT_THEORY = SGP/SGP4

EPOCH          = 2025-10-26T08:42:25.798176
MEAN_MOTION    = 15.15184584
ECCENTRICITY   = .0034896
INCLINATION    = 97.5799
RA_OF_ASC_NODE = 339.6327
ARG_OF_PERICENTER = 15.3758
MEAN_ANOMALY   = 344.8526

EPHEMERIS_TYPE = 0
CLASSIFICATION_TYPE = U
NORAD_CAT_ID   = 29507
ELEMENT_SET_NO = 999
REV_AT_EPOCH   = 3969
BSTAR          = .28776E-3
MEAN_MOTION_DOT = .5414E-4
MEAN_MOTION_DDOT = 0

CCSDS_OMM_VERS = 2.0
CREATION_DATE  = 
ORIGINATOR     = 

OBJECT_NAME    = CZ-2C R/B
OBJECT_ID      = 2007-010B
CENTER_NAME    = EARTH
REF_FRAME      = TEME
TIME_SYSTEM    = UTC
MEAN_ELEMENT_THEORY = SGP/SGP4

EPOCH          = 2025-10-26T07:17:31.286112
MEAN_MOTION    = 14.20181900
ECCENTRICITY   = .0058342
INCLINATION    = 98.3944
RA_OF_ASC_NODE = 54.3504
ARG_OF_PERICENTER = 325.8913
MEAN_ANOMALY   = 33.8521

EPHEMERIS_TYPE = 0
CLASSIFICATION_TYPE = U
NORAD_CAT_ID   = 31114
ELEMENT_SET_NO = 999
REV_AT_EPOCH   = 96064
BSTAR          = .12129E-3
MEAN_MOTION_DOT = .222E-5
MEAN_MOTION_DDOT = 0

CCSDS_OMM_VERS = 2.0
CREATION_DATE  = 
ORIGINATOR     = 

OBJECT_NAME    = COSMO-SKYMED 1
OBJECT_ID      = 2007-023A
CENTER_NAME    = EARTH
REF_FRAME      = TEME
TIME_SYSTEM    = UTC
MEAN_ELEMENT_THEORY = SGP/SGP4

EPOCH          = 2025-10-26T11:37:05.255040
MEAN_MOTION    = 14.95271009
ECCENTRICITY   = .0001421
INCLINATION    = 97.8875
RA_OF_ASC_NODE = 124.5868
ARG_OF_PERICENTER = 82.3231
MEAN_ANOMALY   = 277.8150

EPHEMERIS_TYPE = 0
CLASSIFICATION_TYPE = U
NORAD_CAT_ID   = 31598
ELEMENT_SET_NO = 999
REV_AT_EPOCH   = 99483
BSTAR          = .35364E-3
MEAN_MOTION_DOT = .3835E-4
MEAN_MOTION_DDOT = 0

CCSDS_OMM_VERS = 2.0
CREATION_DATE  = 
ORIGINATOR     = 

OBJECT_NAME    = COSMOS 2428
OBJECT_ID      = 2007-029A
CENTER_NAME    = EARTH
REF_FRAME      = TEME
TIME_SYSTEM    = UTC
MEAN_ELEMENT_THEORY = SGP/SGP4

EPOCH          = 2025-10-26T12:23:17.331648
MEAN_MOTION    = 14.12894627
ECCENTRICITY   = .0001752
INCLINATION    = 70.9366
RA_OF_ASC_NODE = 125.0218
ARG_OF_PERICENTER = 128.9759
MEAN_ANOMALY   = 231.1518

EPHEMERIS_TYPE = 0
CLASSIFICATION_TYPE = U
NORAD_CAT_ID   = 31792
ELEMENT_SET_NO = 999
REV_AT_EPOCH   = 94514
BSTAR          = -.10363E-3
MEAN_MOTION_DOT = -.241E-5
MEAN_MOTION_DDOT = 0

CCSDS_OMM_VERS = 2.0
CREATION_DATE  = 
ORIGINATOR     = 

OBJECT_NAME    = SL-16 R/B
OBJECT_ID      = 2007-029B
CENTER_NAME    = EARTH
REF_FRAME      = TEME
TIME_SYSTEM    = UTC
MEAN_ELEMENT_THEORY = SGP/SGP4

EPOCH          = 2025-10-26T12:19:10.579296
MEAN_MOTION    = 14.14804293
ECCENTRICITY   = .0002583
INCLINATION    = 70.9733
RA_OF_ASC_NODE = 94.4264
ARG_OF_PERICENTER = 263.4499
MEAN_ANOMALY   = 154.4915

EPHEMERIS_TYPE = 0
CLASSIFICATION_TYPE = U
NORAD_CAT_ID   = 31793
ELEMENT_SET_NO = 999
REV_AT_EPOCH   = 94639
BSTAR          = -.39633E-4
MEAN_MOTION_DOT = -.124E-5
MEAN_MOTION_DDOT = 0

CCSDS_OMM_VERS = 2.0
CREATION_DATE  = 
ORIGINATOR     = 

OBJECT_NAME    = KORONAS-FOTON
OBJECT_ID      = 2009-003A
CENTER_NAME    = EARTH
REF_FRAME      = TEME
TIME_SYSTEM    = UTC
MEAN_ELEMENT_THEORY = SGP/SGP4

EPOCH          = 2025-10-26T09:34:45.716736
MEAN_MOTION    = 15.39634955
ECCENTRICITY   = .0010668
INCLINATION    = 82.4330
RA_OF_ASC_NODE = 55.0901
ARG_OF_PERICENTER = 280.1791
MEAN_ANOMALY   = 79.8251

EPHEMERIS_TYPE = 0
CLASSIFICATION_TYPE = U
NORAD_CAT_ID   = 33504
ELEMENT_SET_NO = 999
REV_AT_EPOCH   = 92505
BSTAR          = .40176E-3
MEAN_MOTION_DOT = .15911E-3
MEAN_MOTION_DDOT = 0

CCSDS_OMM_VERS = 2.0
CREATION_DATE  = 
ORIGINATOR     = 

OBJECT_NAME    = CZ-2C R/B
OBJECT_ID      = 2011-030B
CENTER_NAME    = EARTH
REF_FRAME      = TEME
TIME_SYSTEM    = UTC
MEAN_ELEMENT_THEORY = SGP/SGP4

EPOCH          = 2025-10-26T12:08:58.316064
MEAN_MOTION    = 14.80648767
ECCENTRICITY   = .0054701
INCLINATION    = 97.8336
RA_OF_ASC_NODE = 254.6880
ARG_OF_PERICENTER = 67.6335
MEAN_ANOMALY   = 53.0865

EPHEMERIS_TYPE = 0
CLASSIFICATION_TYPE = U
NORAD_CAT_ID   = 37731
ELEMENT_SET_NO = 999
REV_AT_EPOCH   = 77023
BSTAR          = .29465E-3
MEAN_MOTION_DOT = .2268E-4
MEAN_MOTION_DDOT = 0

